FIREFLY-1               
1 62701U 25009CW  26200.26912846  .00000321  00000+0  36491-4 0  9992
2 62701  97.7059 277.7328 0002922 205.4030 154.7047 14.92745522 82100
FIREFLY-2               
1 62704U 25009CZ  26200.24704605  .00000445  00000+0  48459-4 0  9999
2 62704  97.7015 277.4787 0006036 349.0978  11.0110 14.92740418 82102
FIREFLY-3               
1 62710U 25009DF  26200.22499145  .00000726  00000+0  75520-4 0  9995
2 62710  97.7049 277.7192 0004578  64.1724 295.9968 14.92804855 82113
