{"fetched_at":"2026-07-19T17:31:29.717Z","source":"https://celestrak.org/NORAD/elements/gp.php?NAME=FIREFLY&FORMAT=JSON","constellation":"pixxel","records":[{"OBJECT_NAME":"FIREFLY-1","OBJECT_ID":"2025-009CW","EPOCH":"2026-07-19T06:27:32.698944","CLASSIFICATION_TYPE":"U","MEAN_MOTION":14.92745522,"ECCENTRICITY":0.00029221,"INCLINATION":97.7059,"RA_OF_ASC_NODE":277.7328,"ARG_OF_PERICENTER":205.403,"MEAN_ANOMALY":154.7047,"EPHEMERIS_TYPE":0,"NORAD_CAT_ID":62701,"ELEMENT_SET_NO":999,"REV_AT_EPOCH":8210,"BSTAR":0.000036491087,"MEAN_MOTION_DOT":0.00000321,"MEAN_MOTION_DDOT":0},{"OBJECT_NAME":"FIREFLY-2","OBJECT_ID":"2025-009CZ","EPOCH":"2026-07-19T05:55:44.778720","CLASSIFICATION_TYPE":"U","MEAN_MOTION":14.92740418,"ECCENTRICITY":0.00060362,"INCLINATION":97.7015,"RA_OF_ASC_NODE":277.4787,"ARG_OF_PERICENTER":349.0978,"MEAN_ANOMALY":11.011,"EPHEMERIS_TYPE":0,"NORAD_CAT_ID":62704,"ELEMENT_SET_NO":999,"REV_AT_EPOCH":8210,"BSTAR":0.000048458807,"MEAN_MOTION_DOT":0.00000445,"MEAN_MOTION_DDOT":0},{"OBJECT_NAME":"FIREFLY-3","OBJECT_ID":"2025-009DF","EPOCH":"2026-07-19T05:23:59.261280","CLASSIFICATION_TYPE":"U","MEAN_MOTION":14.92804855,"ECCENTRICITY":0.00045783,"INCLINATION":97.7049,"RA_OF_ASC_NODE":277.7192,"ARG_OF_PERICENTER":64.1724,"MEAN_ANOMALY":295.9968,"EPHEMERIS_TYPE":0,"NORAD_CAT_ID":62710,"ELEMENT_SET_NO":999,"REV_AT_EPOCH":8211,"BSTAR":0.000075520331,"MEAN_MOTION_DOT":0.00000726,"MEAN_MOTION_DDOT":0}]}
